

*******************************************************************************
Ephemeris / WWW_USER Tue Mar  7 07:24:40 2023 Pasadena, USA      / Horizons
*******************************************************************************
Target body name: Catalina (P/1999 XN120)         {source: JPL#40}
Center body name: Sun (10)                        {source: DE441}
Center-site name: BODY CENTER
*******************************************************************************
Start time      : A.D. 1999-Jan-01 09:03:00.0000 TDB
Stop  time      : A.D. 2012-Jan-01 00:00:00.0000 TDB
Step-size       : 1 calendar months
*******************************************************************************
Center geodetic : 0.0, 0.0, 0.0                   {E-lon(deg),Lat(deg),Alt(km)}
Center cylindric: 0.0, 0.0, 0.0                   {E-lon(deg),Dxy(km),Dz(km)}
Center radii    : 696000.0, 696000.0, 696000.0 km {Equator_a, b, pole_c}
Small perturbers: Yes                             {source: SB441-N16}
Output units    : KM-S
Calendar mode   : Mixed Julian/Gregorian
Output type     : GEOMETRIC cartesian states
Output format   : 1 (position only)
Reference frame : Ecliptic of J2000.0
*******************************************************************************
Initial IAU76/J2000 heliocentric ecliptic osculating elements (au, days, deg.):
  EPOCH=  2451552.5 ! 2000-Jan-09.0000000 (TDB)    RMSW= n.a.                  
   EC= .2139062792844382   QR= 3.286320816340474   TP= 2451665.8346636244      
   OM= 285.4698148804891   W= 161.7748703779777    IN= 5.028371372514552       
  Equivalent ICRF heliocentric cartesian coordinates (au, au/d):
   X= 1.304656928188019E+00  Y= 2.726922557064128E+00  Z= 1.380899813079959E+00
  VX=-9.721397168510011E-03 VY= 3.504830383889894E-03 VZ= 7.104962836741240E-04
Comet physical (GM= km^3/s^2; RAD= km):                                        
   GM= n.a.                RAD= n.a.                                           
   M1=  9.9      M2=  13.7     k1=  10.    k2=  5.      PHCOF=  .030           
*******************************************************************************
            JDTDB,            Calendar Date (TDB),                      X,                      Y,                      Z,
**************************************************************************************************************************
$$SOE
2453036.877083333, A.D. 2004-Feb-01 09:03:00.0000, -2.185578686093021E+08, -7.171431516480746E+08, -3.538145983833438E+07,
2453065.877083333, A.D. 2004-Mar-01 09:03:00.0000, -1.906146584376926E+08, -7.270688951897813E+08, -3.324336097505835E+07,
2453096.877083333, A.D. 2004-Apr-01 09:03:00.0000, -1.603323211790337E+08, -7.361062728723739E+08, -3.088600436123395E+07,
2453126.877083333, A.D. 2004-May-01 09:03:00.0000, -1.306858132540166E+08, -7.432955977967198E+08, -2.853932751078889E+07,
2453157.877083333, A.D. 2004-Jun-01 09:03:00.0000, -9.976639755941410E+07, -7.491079452002461E+08, -2.605243705390012E+07,
2453187.877083333, A.D. 2004-Jul-01 09:03:00.0000, -6.963351039076877E+07, -7.531619191857972E+08, -2.359109116800725E+07,
2453218.877083333, A.D. 2004-Aug-01 09:03:00.0000, -3.834555263080315E+07, -7.557225525680017E+08, -2.099676964691329E+07,
2453249.877083333, A.D. 2004-Sep-01 09:03:00.0000, -6.972766328725103E+06, -7.566241081990416E+08, -1.835635822486937E+07,
2453279.877083333, A.D. 2004-Oct-01 09:03:00.0000,  2.340383590580312E+07, -7.559145796431711E+08, -1.576268591885799E+07,
2453310.877083333, A.D. 2004-Nov-01 09:03:00.0000,  5.474233488495321E+07, -7.535454458317138E+08, -1.304852507513720E+07,
2453340.877083333, A.D. 2004-Dec-01 09:03:00.0000,  8.495642386649039E+07, -7.496694667027112E+08, -1.039446479775733E+07,
2453371.877083333, A.D. 2005-Jan-01 09:03:00.0000,  1.159925579042921E+08, -7.440294466626232E+08, -7.629362770232975E+06,
2453402.877083333, A.D. 2005-Feb-01 09:03:00.0000,  1.467710318236648E+08, -7.367303159353914E+08, -4.847282195480078E+06,
2453430.877083333, A.D. 2005-Mar-01 09:03:00.0000,  1.742902894201959E+08, -7.287148862232646E+08, -2.324922490474135E+06,
2453461.877083333, A.D. 2005-Apr-01 09:03:00.0000,  2.043810409521192E+08, -7.182708948843778E+08,  4.724883751193881E+05,
2453491.877083333, A.D. 2005-May-01 09:03:00.0000,  2.330576062705312E+08, -7.065999223656520E+08,  3.178675081448406E+06,
2453522.877083333, A.D. 2005-Jun-01 09:03:00.0000,  2.621598739339696E+08, -6.929327922064905E+08,  5.967743389077067E+06,
2453552.877083333, A.D. 2005-Jul-01 09:03:00.0000,  2.897404172252465E+08, -6.781615419476416E+08,  8.653566806730747E+06,
2453583.877083333, A.D. 2005-Aug-01 09:03:00.0000,  3.175636405558270E+08, -6.613140092272763E+08,  1.140858681287849E+07,
2453614.877083333, A.D. 2005-Sep-01 09:03:00.0000,  3.446219106617554E+08, -6.428716752924979E+08,  1.413605816584978E+07,
2453644.877083333, A.D. 2005-Oct-01 09:03:00.0000,  3.700039815424436E+08, -6.235226397488596E+08,  1.674257496900386E+07,
2453675.877083333, A.D. 2005-Nov-01 09:03:00.0000,  3.953228355451482E+08, -6.019970962933283E+08,  1.939474162976164E+07,
2453705.877083333, A.D. 2005-Dec-01 09:03:00.0000,  4.188675847725558E+08, -5.797060019839759E+08,  2.191438430318198E+07,
2453736.877083333, A.D. 2006-Jan-01 09:03:00.0000,  4.421254040876186E+08, -5.551897684492674E+08,  2.446184763528630E+07,
2453767.877083333, A.D. 2006-Feb-01 09:03:00.0000,  4.642082199705696E+08, -5.291974950148941E+08,  2.694422047011527E+07,
2453795.877083333, A.D. 2006-Mar-01 09:03:00.0000,  4.830703029007747E+08, -5.044806762373372E+08,  2.912347413521385E+07,
2453826.877083333, A.D. 2006-Apr-01 09:03:00.0000,  5.026699906334592E+08, -4.757787228785176E+08,  3.145864793185955E+07,
2453856.877083333, A.D. 2006-May-01 09:03:00.0000,  5.202687448600897E+08, -4.467048643267829E+08,  3.363277927046707E+07,
2453887.877083333, A.D. 2006-Jun-01 09:03:00.0000,  5.369473501089129E+08, -4.153688536167349E+08,  3.578187499014492E+07,
2453917.877083333, A.D. 2006-Jul-01 09:03:00.0000,  5.515395967719254E+08, -3.838441038832318E+08,  3.775843660627593E+07,
2453948.877083333, A.D. 2006-Aug-01 09:03:00.0000,  5.649224549392624E+08, -3.500895028756278E+08,  3.968470135137235E+07,
2453979.877083333, A.D. 2006-Sep-01 09:03:00.0000,  5.764828691834114E+08, -3.152054741697822E+08,  4.148287965861224E+07,
2454009.877083333, A.D. 2006-Oct-01 09:03:00.0000,  5.858400486849450E+08, -2.804445108592716E+08,  4.309129257257725E+07,
2454040.877083333, A.D. 2006-Nov-01 09:03:00.0000,  5.935186254976709E+08, -2.435733390228741E+08,  4.460678352620222E+07,
2454070.877083333, A.D. 2006-Dec-01 09:03:00.0000,  5.989279105299628E+08, -2.070603767405920E+08,  4.592140797104556E+07,
2454101.877083333, A.D. 2007-Jan-01 09:03:00.0000,  6.023293855739555E+08, -1.685753831676691E+08,  4.711197329236871E+07,
2454132.877083333, A.D. 2007-Feb-01 09:03:00.0000,  6.034072770134169E+08, -1.294402228917609E+08,  4.812074186188844E+07,
2454160.877083333, A.D. 2007-Mar-01 09:03:00.0000,  6.023018693090684E+08, -9.364221539303960E+07,  4.886615051850896E+07,
2454191.877083333, A.D. 2007-Apr-01 09:03:00.0000,  5.986890681166823E+08, -5.364268941509803E+07,  4.949741407500610E+07,
2454221.877083333, A.D. 2007-May-01 09:03:00.0000,  5.927206406425799E+08, -1.471062220996721E+07,  4.990388311513542E+07,
2454252.877083333, A.D. 2007-Jun-01 09:03:00.0000,  5.839175627697903E+08,  2.558225070395477E+07,  5.010184471761776E+07,
2454282.877083333, A.D. 2007-Jul-01 09:03:00.0000,  5.727781350189263E+08,  6.446220893708517E+07,  5.006853753363215E+07,
2454313.877083333, A.D. 2007-Aug-01 09:03:00.0000,  5.584974599359127E+08,  1.043240074779458E+08,  4.979187175862455E+07,
2454344.877083333, A.D. 2007-Sep-01 09:03:00.0000,  5.413517336737981E+08,  1.436501670487740E+08,  4.925973117977542E+07,
2454374.877083333, A.D. 2007-Oct-01 09:03:00.0000,  5.219995219759694E+08,  1.809773056303039E+08,  4.849367690702621E+07,
2454405.877083333, A.D. 2007-Nov-01 09:03:00.0000,  4.991372868612397E+08,  2.185518651420865E+08,  4.743584492412718E+07,
2454435.877083333, A.D. 2007-Dec-01 09:03:00.0000,  4.742487445185474E+08,  2.537058845598844E+08,  4.614949179571071E+07,
2454466.877083333, A.D. 2008-Jan-01 09:03:00.0000,  4.457094213145352E+08,  2.885179592862986E+08,  4.454557551070647E+07,
2454497.877083333, A.D. 2008-Feb-01 09:03:00.0000,  4.143673157455516E+08,  3.215143211478852E+08,  4.266145588237171E+07,
2454526.877083333, A.D. 2008-Mar-01 09:03:00.0000,  3.825962797793431E+08,  3.504862589193791E+08,  4.064664525029148E+07,
2454557.877083333, A.D. 2008-Apr-01 09:03:00.0000,  3.461394592356623E+08,  3.791611504803041E+08,  3.822759092732716E+07,
2454587.877083333, A.D. 2008-May-01 09:03:00.0000,  3.085597083714841E+08,  4.043966482704762E+08,  3.563276440765440E+07,
2454618.877083333, A.D. 2008-Jun-01 09:03:00.0000,  2.675523249691427E+08,  4.276158279078418E+08,  3.270011293794596E+07,
2454648.877083333, A.D. 2008-Jul-01 09:03:00.0000,  2.259896078590132E+08,  4.470898083719053E+08,  2.963264608206290E+07,
2454679.877083333, A.D. 2008-Aug-01 09:03:00.0000,  1.813718305352576E+08,  4.639002958319857E+08,  2.624377483877486E+07,
2454710.877083333, A.D. 2008-Sep-01 09:03:00.0000,  1.353645157919419E+08,  4.771556419320814E+08,  2.265379943272522E+07,
2454740.877083333, A.D. 2008-Oct-01 09:03:00.0000,  8.983641207469162E+07,  4.864550522259954E+08,  1.901178055790862E+07,
2454771.877083333, A.D. 2008-Nov-01 09:03:00.0000,  4.210144569996491E+07,  4.923123401571324E+08,  1.510206189676118E+07,
2454801.877083333, A.D. 2008-Dec-01 09:03:00.0000, -4.413736499059035E+06,  4.942913736046077E+08,  1.120495067213082E+07,
2454832.877083333, A.D. 2009-Jan-01 09:03:00.0000, -5.244223390483694E+07,  4.925106030347825E+08,  7.091534667459220E+06,
2454863.877083333, A.D. 2009-Feb-01 09:03:00.0000, -1.000616179643107E+08,  4.868763231806695E+08,  2.922597659239620E+06,
